{"type": "FeatureCollection", "features": [ {"type": "Feature", "properties": {"norad_id": 34077, "name": "IRIDIUM 33 DEB", "group": "iridium-33-debris", "lat": -55.76492980962806, "lon": 42.80284570434079, "alt_km": 682.3249135423766, "timestamp": "2025-12-20T09:36:02.033578+00:00", "meta": {"OBJECT_NAME": "IRIDIUM 33 DEB", "OBJECT_ID": "1997-051CL", "EPOCH": "2025-12-20T03:25:48.307872", "MEAN_MOTION": 14.64909698, "ECCENTRICITY": 0.0009358, "INCLINATION": 86.3852, "RA_OF_ASC_NODE": 48.2464, "ARG_OF_PERICENTER": 15.7407, "MEAN_ANOMALY": 13.5022, "EPHEMERIS_TYPE": 0, "CLASSIFICATION_TYPE": "U", "NORAD_CAT_ID": 34077, "ELEMENT_SET_NO": 999, "REV_AT_EPOCH": 88441, "BSTAR": 0.00069119, "MEAN_MOTION_DOT": 3.719e-05, "MEAN_MOTION_DDOT": 0}, "tle": {"line1": "1 34077U 97051CL  25354.14292023  .00003719  00000+0  69119-3 0  9993", "line2": "2 34077  86.3852  48.2464 0009358  15.7407  13.5022 14.64909698884416"}}, "geometry": {"type": "Point", "coordinates": [42.80284570434079, -55.76492980962806]}}, {"type": "Feature", "properties": {"norad_id": 34079, "name": "IRIDIUM 33 DEB", "group": "iridium-33-debris", "lat": 85.71130539851481, "lon": 127.51212396367802, "alt_km": 611.3789096510609, "timestamp": "2025-12-20T09:36:02.033589+00:00", "meta": {"OBJECT_NAME": "IRIDIUM 33 DEB", "OBJECT_ID": "1997-051CN", "EPOCH": "2025-12-20T01:20:01.279104", "MEAN_MOTION": 14.83701637, "ECCENTRICITY": 0.0004734, "INCLINATION": 86.3768, "RA_OF_ASC_NODE": 5.3347, "ARG_OF_PERICENTER": 342.2564, "MEAN_ANOMALY": 71.3567, "EPHEMERIS_TYPE": 0, "CLASSIFICATION_TYPE": "U", "NORAD_CAT_ID": 34079, "ELEMENT_SET_NO": 999, "REV_AT_EPOCH": 89086, "BSTAR": 0.0010995, "MEAN_MOTION_DOT": 9.114e-05, "MEAN_MOTION_DDOT": 0}, "tle": {"line1": "1 34079U 97051CN  25354.05557036  .00009114  00000+0  10995-2 0  9995", "line2": "2 34079  86.3768   5.3347 0004734 342.2564  71.3567 14.83701637890869"}}, "geometry": {"type": "Point", "coordinates": [127.51212396367802, 85.71130539851481]}}, {"type": "Feature", "properties": {"norad_id": 34088, "name": "IRIDIUM 33 DEB", "group": "iridium-33-debris", "lat": 41.78695038948929, "lon": 30.443277802606868, "alt_km": 590.9290060980447, "timestamp": "2025-12-20T09:36:02.033600+00:00", "meta": {"OBJECT_NAME": "IRIDIUM 33 DEB", "OBJECT_ID": "1997-051CX", "EPOCH": "2025-12-20T01:29:37.281120", "MEAN_MOTION": 14.9169164, "ECCENTRICITY": 0.0006466, "INCLINATION": 86.3842, "RA_OF_ASC_NODE": 27.3589, "ARG_OF_PERICENTER": 153.3403, "MEAN_ANOMALY": 235.9617, "EPHEMERIS_TYPE": 0, "CLASSIFICATION_TYPE": "U", "NORAD_CAT_ID": 34088, "ELEMENT_SET_NO": 999, "REV_AT_EPOCH": 88851, "BSTAR": 0.0014203, "MEAN_MOTION_DOT": 0.00014326, "MEAN_MOTION_DDOT": 0}, "tle": {"line1": "1 34088U 97051CX  25354.06223705  .00014326  00000+0  14203-2 0  9996", "line2": "2 34088  86.3842  27.3589 0006466 153.3403 235.9617 14.91691640888515"}}, "geometry": {"type": "Point", "coordinates": [30.443277802606868, 41.78695038948929]}}, {"type": "Feature", "properties": {"norad_id": 34091, "name": "IRIDIUM 33 DEB", "group": "iridium-33-debris", "lat": -32.334478761689056, "lon": 61.00405573489184, "alt_km": 616.9747421008051, "timestamp": "2025-12-20T09:36:02.033610+00:00", "meta": {"OBJECT_NAME": "IRIDIUM 33 DEB", "OBJECT_ID": "1997-051DA", "EPOCH": "2025-12-20T03:15:56.542176", "MEAN_MOTION": 14.82324174, "ECCENTRICITY": 0.0034002, "INCLINATION": 86.3416, "RA_OF_ASC_NODE": 63.4462, "ARG_OF_PERICENTER": 266.5392, "MEAN_ANOMALY": 93.1941, "EPHEMERIS_TYPE": 0, "CLASSIFICATION_TYPE": "U", "NORAD_CAT_ID": 34091, "ELEMENT_SET_NO": 999, "REV_AT_EPOCH": 87976, "BSTAR": 0.0028845, "MEAN_MOTION_DOT": 0.00023366, "MEAN_MOTION_DDOT": 0}, "tle": {"line1": "1 34091U 97051DA  25354.13607109  .00023366  00000+0  28845-2 0  9993", "line2": "2 34091  86.3416  63.4462 0034002 266.5392  93.1941 14.82324174879764"}}, "geometry": {"type": "Point", "coordinates": [61.00405573489184, -32.334478761689056]}}, {"type": "Feature", "properties": {"norad_id": 34097, "name": "IRIDIUM 33 DEB", "group": "iridium-33-debris", "lat": -6.742512171761772, "lon": -2.4236901027015363, "alt_km": 723.2777145744458, "timestamp": "2025-12-20T09:36:02.033621+00:00", "meta": {"OBJECT_NAME": "IRIDIUM 33 DEB", "OBJECT_ID": "1997-051DG", "EPOCH": "2025-12-19T23:35:21.259680", "MEAN_MOTION": 14.34830969, "ECCENTRICITY": 0.0081789, "INCLINATION": 86.1999, "RA_OF_ASC_NODE": 358.2106, "ARG_OF_PERICENTER": 338.4986, "MEAN_ANOMALY": 21.278, "EPHEMERIS_TYPE": 0, "CLASSIFICATION_TYPE": "U", "NORAD_CAT_ID": 34097, "ELEMENT_SET_NO": 999, "REV_AT_EPOCH": 87223, "BSTAR": 0.00099794, "MEAN_MOTION_DOT": 2.959e-05, "MEAN_MOTION_DDOT": 0}, "tle": {"line1": "1 34097U 97051DG  25353.98288495  .00002959  00000+0  99794-3 0  9991", "line2": "2 34097  86.1999 358.2106 0081789 338.4986  21.2780 14.34830969872235"}}, "geometry": {"type": "Point", "coordinates": [-2.4236901027015363, -6.742512171761772]}}, {"type": "Feature", "properties": {"norad_id": 34145, "name": "IRIDIUM 33 DEB", "group": "iridium-33-debris", "lat": 70.07480184598934, "lon": 138.58161638999619, "alt_km": 713.6651070113894, "timestamp": "2025-12-20T09:36:02.033631+00:00", "meta": {"OBJECT_NAME": "IRIDIUM 33 DEB", "OBJECT_ID": "1997-051DY", "EPOCH": "2025-12-18T08:48:48.486240", "MEAN_MOTION": 14.42328092, "ECCENTRICITY": 0.00557365, "INCLINATION": 86.2113, "RA_OF_ASC_NODE": 330.0199, "ARG_OF_PERICENTER": 75.968, "MEAN_ANOMALY": 284.7708, "EPHEMERIS_TYPE": 0, "CLASSIFICATION_TYPE": "U", "NORAD_CAT_ID": 34145, "ELEMENT_SET_NO": 999, "REV_AT_EPOCH": 87719, "BSTAR": 0.00092678493, "MEAN_MOTION_DOT": 3.137e-05, "MEAN_MOTION_DDOT": 0}, "tle": {"line1": "1 34145U 97051DY  25352.36722785  .00003137  00000+0  92678-3 0  9994", "line2": "2 34145  86.2113 330.0199 0055736  75.9680 284.7708 14.42328092877199"}}, "geometry": {"type": "Point", "coordinates": [138.58161638999619, 70.07480184598934]}}, {"type": "Feature", "properties": {"norad_id": 34146, "name": "IRIDIUM 33 DEB", "group": "iridium-33-debris", "lat": -66.60746669172296, "lon": -22.227130145034128, "alt_km": 738.5436669059691, "timestamp": "2025-12-20T09:36:02.033641+00:00", "meta": {"OBJECT_NAME": "IRIDIUM 33 DEB", "OBJECT_ID": "1997-051DZ", "EPOCH": "2025-12-20T00:12:57.905856", "MEAN_MOTION": 14.49092995, "ECCENTRICITY": 0.0026193, "INCLINATION": 86.2829, "RA_OF_ASC_NODE": 346.5888, "ARG_OF_PERICENTER": 196.282, "MEAN_ANOMALY": 218.0405, "EPHEMERIS_TYPE": 0, "CLASSIFICATION_TYPE": "U", "NORAD_CAT_ID": 34146, "ELEMENT_SET_NO": 999, "REV_AT_EPOCH": 88212, "BSTAR": 0.00059291, "MEAN_MOTION_DOT": 2.281e-05, "MEAN_MOTION_DDOT": 0}, "tle": {"line1": "1 34146U 97051DZ  25354.00900354  .00002281  00000+0  59291-3 0  9991", "line2": "2 34146  86.2829 346.5888 0026193 196.2820 218.0405 14.49092995882129"}}, "geometry": {"type": "Point", "coordinates": [-22.227130145034128, -66.60746669172296]}}, {"type": "Feature", "properties": {"norad_id": 34159, "name": "IRIDIUM 33 DEB", "group": "iridium-33-debris", "lat": 76.10826182975637, "lon": 59.931754164827744, "alt_km": 774.8518668284778, "timestamp": "2025-12-20T09:36:02.033655+00:00", "meta": {"OBJECT_NAME": "IRIDIUM 33 DEB", "OBJECT_ID": "1997-051EN", "EPOCH": "2025-12-20T04:14:10.387104", "MEAN_MOTION": 14.38510263, "ECCENTRICITY": 0.0026019, "INCLINATION": 86.3501, "RA_OF_ASC_NODE": 45.0705, "ARG_OF_PERICENTER": 261.5269, "MEAN_ANOMALY": 98.298, "EPHEMERIS_TYPE": 0, "CLASSIFICATION_TYPE": "U", "NORAD_CAT_ID": 34159, "ELEMENT_SET_NO": 999, "REV_AT_EPOCH": 88066, "BSTAR": 0.00026555, "MEAN_MOTION_DOT": 8.33e-06, "MEAN_MOTION_DDOT": 0}, "tle": {"line1": "1 34159U 97051EN  25354.17650911  .00000833  00000+0  26555-3 0  9992", "line2": "2 34159  86.3501  45.0705 0026019 261.5269  98.2980 14.38510263880664"}}, "geometry": {"type": "Point", "coordinates": [59.931754164827744, 76.10826182975637]}}, {"type": "Feature", "properties": {"norad_id": 34350, "name": "IRIDIUM 33 DEB", "group": "iridium-33-debris", "lat": -64.65242584844897, "lon": -8.31013931962954, "alt_km": 764.591524662832, "timestamp": "2025-12-20T09:36:02.033665+00:00", "meta": {"OBJECT_NAME": "IRIDIUM 33 DEB", "OBJECT_ID": "1997-051ES", "EPOCH": "2025-12-20T00:11:40.780032", "MEAN_MOTION": 14.4540242, "ECCENTRICITY": 0.0023333, "INCLINATION": 86.3271, "RA_OF_ASC_NODE": 359.653, "ARG_OF_PERICENTER": 112.8766, "MEAN_ANOMALY": 304.2964, "EPHEMERIS_TYPE": 0, "CLASSIFICATION_TYPE": "U", "NORAD_CAT_ID": 34350, "ELEMENT_SET_NO": 999, "REV_AT_EPOCH": 88398, "BSTAR": 0.00022972, "MEAN_MOTION_DOT": 8.31e-06, "MEAN_MOTION_DDOT": 0}, "tle": {"line1": "1 34350U 97051ES  25354.00811088  .00000831  00000+0  22972-3 0  9998", "line2": "2 34350  86.3271 359.6530 0023333 112.8766 304.2964 14.45402420883980"}}, "geometry": {"type": "Point", "coordinates": [-8.31013931962954, -64.65242584844897]}}, {"type": "Feature", "properties": {"norad_id": 34366, "name": "IRIDIUM 33 DEB", "group": "iridium-33-debris", "lat": 37.192527985745436, "lon": -136.78005198160304, "alt_km": 695.139942836553, "timestamp": "2025-12-20T09:36:02.033676+00:00", "meta": {"OBJECT_NAME": "IRIDIUM 33 DEB", "OBJECT_ID": "1997-051FJ", "EPOCH": "2025-12-20T04:14:24.389952", "MEAN_MOTION": 14.54111544, "ECCENTRICITY": 0.0022965, "INCLINATION": 86.369, "RA_OF_ASC_NODE": 46.079, "ARG_OF_PERICENTER": 116.4779, "MEAN_ANOMALY": 297.5797, "EPHEMERIS_TYPE": 0, "CLASSIFICATION_TYPE": "U", "NORAD_CAT_ID": 34366, "ELEMENT_SET_NO": 999, "REV_AT_EPOCH": 88290, "BSTAR": 0.00060149, "MEAN_MOTION_DOT": 2.57e-05, "MEAN_MOTION_DDOT": 0}, "tle": {"line1": "1 34366U 97051FJ  25354.17667118  .00002570  00000+0  60149-3 0  9996", "line2": "2 34366  86.3690  46.0790 0022965 116.4779 297.5797 14.54111544882904"}}, "geometry": {"type": "Point", "coordinates": [-136.78005198160304, 37.192527985745436]}}]}